{"data":[{"zipCode":"14304 - 673","address":"Virginie Wall Apt. 208","has_children":false,"Referência":null,"Warned":false,"Pedidos":null,"Address_with_zip":"Virginie Wall Apt. 20814304 - 673","Nacionalidade":"BR","Visitas":"1,0","Telemóvel":"935382404","Notas":"Amiga ","ID":408.0,"Nome":"Sara Rossetto","Família de":null},{"zipCode":"12748 - 145","address":"Nelson Street Apt. 591","has_children":false,"Referência":"chat ucranian","Warned":false,"Pedidos":null,"Address_with_zip":"Nelson Street Apt. 59112748 - 145","Nacionalidade":"UA","Visitas":"1,0","Telemóvel":"933736327","Notas":null,"ID":353.0,"Nome":"Natália  ","Família de":null},{"zipCode":"90399 - 716","address":"Berge Extensions Apt. 295","has_children":false,"Referência":"Ucranian chat","Warned":false,"Pedidos":null,"Address_with_zip":"Berge Extensions Apt. 29590399 - 716","Nacionalidade":"UA","Visitas":"2,0","Telemóvel":"912720490,0","Notas":null,"ID":280.0,"Nome":"Liza","Família de":null},{"zipCode":"72917 - 993","address":"Helmer Corners Suite 486","has_children":false,"Referência":null,"Warned":false,"Pedidos":null,"Address_with_zip":"Helmer Corners Suite 48672917 - 993","Nacionalidade":"BD","Visitas":"2,0","Telemóvel":"925316276","Notas":null,"ID":260.0,"Nome":"Khayrul Basher","Família de":null},{"zipCode":"07820 - 181","address":"Emmerich Avenue Apt. 673","has_children":false,"Referência":"Igreja S. Lázaro ","Warned":false,"Pedidos":"2 filhos grandes","Address_with_zip":"Emmerich Avenue Apt. 67307820 - 181","Nacionalidade":"PT","Visitas":"1,0","Telemóvel":null,"Notas":"Vive na rua","ID":113.0,"Nome":"Dulce Costa","Família de":null},{"zipCode":"95827 - 218","address":"W River Road Apt. 174","has_children":false,"Referência":"Amigos brasileiros","Warned":false,"Pedidos":null,"Address_with_zip":"W River Road Apt. 17495827 - 218","Nacionalidade":"BR","Visitas":"2,0","Telemóvel":"915224536,0","Notas":null,"ID":77.0,"Nome":"Carolina Melo","Família de":null},{"zipCode":"57434 - 846","address":"Lansdowne Road Suite 699","has_children":false,"Referência":"Ucranian chat","Warned":false,"Pedidos":null,"Address_with_zip":"Lansdowne Road Suite 69957434 - 846","Nacionalidade":"UA","Visitas":"3,0","Telemóvel":"913099435,0","Notas":null,"ID":15.0,"Nome":"Alexandra","Família de":null},{"zipCode":"54849 - 928","address":"Kihn Harbors Apt. 100","has_children":false,"Referência":"amigo ","Warned":false,"Pedidos":null,"Address_with_zip":"Kihn Harbors Apt. 10054849 - 928","Nacionalidade":"PT","Visitas":"1,0","Telemóvel":"927324784","Notas":null,"ID":503.0,"Nome":"Manuela Cerqueira ","Família de":"1,0"},{"zipCode":"78913 - 304","address":"Stuart Cliffs Apt. 718","has_children":false,"Referência":"k37","Warned":false,"Pedidos":null,"Address_with_zip":"Stuart Cliffs Apt. 71878913 - 304","Nacionalidade":"PT","Visitas":"1,0","Telemóvel":"935284829","Notas":null,"ID":425.0,"Nome":"Stella Barradas","Família de":"1,0"},{"zipCode":"22555 - 095","address":"Hill Street Suite 673","has_children":false,"Referência":"Colegas","Warned":false,"Pedidos":null,"Address_with_zip":"Hill Street Suite 67322555 - 095","Nacionalidade":"ES","Visitas":"2,0","Telemóvel":"915298566","Notas":null,"ID":391.0,"Nome":"Rosário cuello ","Família de":"1,0"},{"zipCode":"39131 - 424","address":"Ward Manor Suite 940","has_children":false,"Referência":"D. Adriana ","Warned":false,"Pedidos":null,"Address_with_zip":"Ward Manor Suite 94039131 - 424","Nacionalidade":"BR","Visitas":"4,0","Telemóvel":"969299206","Notas":null,"ID":316.0,"Nome":"Maria do socorro costa","Família de":"1,0"},{"zipCode":"12999 - 844","address":"Giovanni Glens Suite 351","has_children":false,"Referência":"amiga","Warned":false,"Pedidos":null,"Address_with_zip":"Giovanni Glens Suite 35112999 - 844","Nacionalidade":"CO","Visitas":"3,0","Telemóvel":"914251480","Notas":null,"ID":297.0,"Nome":"Luz Padilla","Família de":"1,0"},{"zipCode":"18980 - 788","address":"Veterans Memorial Drive Suite 997","has_children":false,"Referência":"K37","Warned":false,"Pedidos":null,"Address_with_zip":"Veterans Memorial Drive Suite 99718980 - 788","Nacionalidade":"BR","Visitas":"1,0","Telemóvel":"964057587","Notas":null,"ID":252.0,"Nome":"Kassia Azevedo","Família de":"1,0"},{"zipCode":"11017 - 457","address":"Reba Pines Suite 116","has_children":false,"Referência":"amigo","Warned":false,"Pedidos":"grávida ","Address_with_zip":"Reba Pines Suite 11611017 - 457","Nacionalidade":"NP","Visitas":"8,0","Telemóvel":"920338264","Notas":null,"ID":239.0,"Nome":"Joti Bhandari","Família de":"1,0"},{"zipCode":"22950 - 433","address":"Cecelia Fields Apt. 939","has_children":false,"Referência":"Tio ","Warned":false,"Pedidos":null,"Address_with_zip":"Cecelia Fields Apt. 93922950 - 433","Nacionalidade":"ES","Visitas":"1,0","Telemóvel":"932567294","Notas":null,"ID":232.0,"Nome":"José alejandro","Família de":"1,0"},{"zipCode":"32089 - 891","address":"Stoltenberg Isle Apt. 430","has_children":false,"Referência":"amigo","Warned":false,"Pedidos":null,"Address_with_zip":"Stoltenberg Isle Apt. 43032089 - 891","Nacionalidade":"BR","Visitas":"1,0","Telemóvel":"926787027","Notas":null,"ID":197.0,"Nome":"Jandui silva","Família de":"1,0"},{"zipCode":"69045 - 775","address":"Jones Run Apt. 712","has_children":false,"Referência":"primo","Warned":false,"Pedidos":null,"Address_with_zip":"Jones Run Apt. 71269045 - 775","Nacionalidade":"PE","Visitas":"5,0","Telemóvel":"931810163","Notas":null,"ID":170.0,"Nome":"hoovet aranda","Família de":"1,0"},{"zipCode":"99479 - 539","address":"Ledner Junction Suite 624","has_children":false,"Referência":"VAP","Warned":false,"Pedidos":null,"Address_with_zip":"Ledner Junction Suite 62499479 - 539","Nacionalidade":"GT","Visitas":"1,0","Telemóvel":null,"Notas":null,"ID":121.0,"Nome":"Edvin Reyes ","Família de":"1,0"},{"zipCode":"11323 - 551","address":"Kings Highway Suite 413","has_children":false,"Referência":"Amiga","Warned":false,"Pedidos":null,"Address_with_zip":"Kings Highway Suite 41311323 - 551","Nacionalidade":"ES","Visitas":"2,0","Telemóvel":"938058436","Notas":null,"ID":249.0,"Nome":"Karen Mendes","Família de":"10,0"},{"zipCode":"54208 - 082","address":"River Street Apt. 200","has_children":false,"Referência":"família ","Warned":false,"Pedidos":null,"Address_with_zip":"River Street Apt. 20054208 - 082","Nacionalidade":"GN","Visitas":"1,0","Telemóvel":"938847250","Notas":null,"ID":480.0,"Nome":"Iafai manga","Família de":"2,0"},{"zipCode":"79493 - 750","address":"Jadyn Drives Apt. 701","has_children":false,"Referência":"Ucranian chat","Warned":false,"Pedidos":null,"Address_with_zip":"Jadyn Drives Apt. 70179493 - 750","Nacionalidade":"UA","Visitas":"1,0","Telemóvel":"938477948","Notas":"Tirou artigos hygienicos, com amigo","ID":462.0,"Nome":"Yan Korenevskyi","Família de":"2,0"},{"zipCode":"27518 - 611","address":"N High Street Apt. 621","has_children":false,"Referência":"amigo","Warned":false,"Pedidos":null,"Address_with_zip":"N High Street Apt. 62127518 - 611","Nacionalidade":"BR","Visitas":"1,0","Telemóvel":".91598429","Notas":null,"ID":381.0,"Nome":"Ricarda Silva ","Família de":"2,0"},{"zipCode":"80194 - 662","address":"Blick Hollow Suite 453","has_children":false,"Referência":"Farhad - Ucraniana","Warned":false,"Pedidos":"Calcas de tamnho 32-33 para filha","Address_with_zip":"Blick Hollow Suite 45380194 - 662","Nacionalidade":"UA","Visitas":"2,0","Telemóvel":"351933146064","Notas":null,"ID":366.0,"Nome":"Olga","Família de":"2,0"},{"zipCode":"72901 - 584","address":"Tad Fields Apt. 629","has_children":false,"Referência":"Tânia","Warned":false,"Pedidos":null,"Address_with_zip":"Tad Fields Apt. 62972901 - 584","Nacionalidade":"BR","Visitas":"11,0","Telemóvel":"965173482","Notas":null,"ID":319.0,"Nome":"Maria José Melo","Família de":"2,0"},{"zipCode":"24478 - 260","address":"West Well Apt. 643","has_children":false,"Referência":"Amiga","Warned":false,"Pedidos":null,"Address_with_zip":"West Well Apt. 64324478 - 260","Nacionalidade":"PT","Visitas":"2,0","Telemóvel":"933062122","Notas":null,"ID":291.0,"Nome":"Lucília  Alves","Família de":"2,0"},{"zipCode":"53077 - 116","address":"Juwan Extension Apt. 969","has_children":false,"Referência":"Filha tâmara ","Warned":false,"Pedidos":null,"Address_with_zip":"Juwan Extension Apt. 96953077 - 116","Nacionalidade":"BR","Visitas":"1,0","Telemóvel":"558197479449","Notas":null,"ID":285.0,"Nome":"Lucia lima","Família de":"2,0"},{"zipCode":"66542 - 677","address":"Trevion Viaduct Apt. 970","has_children":false,"Referência":"amigo","Warned":false,"Pedidos":null,"Address_with_zip":"Trevion Viaduct Apt. 97066542 - 677","Nacionalidade":"BR","Visitas":"3,0","Telemóvel":"933245903","Notas":null,"ID":163.0,"Nome":"Gustavo Santos","Família de":"2,0"},{"zipCode":"32381 - 588","address":"Constantin Locks Suite 789","has_children":false,"Referência":"Carla associação ","Warned":false,"Pedidos":null,"Address_with_zip":"Constantin Locks Suite 78932381 - 588","Nacionalidade":"BR","Visitas":"1,0","Telemóvel":"961659597","Notas":null,"ID":131.0,"Nome":"Emanuela","Família de":"2,0"},{"zipCode":"39131 - 280","address":"Cronin Points Apt. 619","has_children":false,"Referência":"Amiga","Warned":false,"Pedidos":null,"Address_with_zip":"Cronin Points Apt. 61939131 - 280","Nacionalidade":"ES","Visitas":"1,0","Telemóvel":"04129437055","Notas":null,"ID":94.0,"Nome":"Coromoto","Família de":"2,0"},{"zipCode":"37718 - 282","address":"Lorenzo Springs Apt. 802","has_children":false,"Referência":"amiga ","Warned":false,"Pedidos":null,"Address_with_zip":"Lorenzo Springs Apt. 80237718 - 282","Nacionalidade":"BR","Visitas":"1,0","Telemóvel":"913809383","Notas":null,"ID":42.0,"Nome":"andreza severo ","Família de":"2,0"},{"zipCode":"23872 - 961","address":"Boehm Lake Apt. 845","has_children":false,"Referência":"Sa ser Miranda","Warned":false,"Pedidos":null,"Address_with_zip":"Boehm Lake Apt. 84523872 - 961","Nacionalidade":"SV","Visitas":"2,0","Telemóvel":"931892315","Notas":null,"ID":27.0,"Nome":"Ana Esperança Ayala","Família de":"2,0"},{"zipCode":"21379 - 910","address":"Douglas Road Suite 627","has_children":true,"Referência":"amigos ","Warned":false,"Pedidos":null,"Address_with_zip":"Douglas Road Suite 62721379 - 910","Nacionalidade":"BR","Visitas":"1,0","Telemóvel":"925567760","Notas":"sobrinho ","ID":500.0,"Nome":"Gabriel Silva","Família de":"2,0"},{"zipCode":"68029 - 726","address":"Emelia Islands Suite 362","has_children":true,"Referência":"amiga","Warned":false,"Pedidos":null,"Address_with_zip":"Emelia Islands Suite 36268029 - 726","Nacionalidade":"BR","Visitas":"1,0","Telemóvel":"929243290","Notas":"menino 10 anos","ID":447.0,"Nome":"Vanessa Lima","Família de":"2,0"},{"zipCode":"69777 - 506","address":"Ricky Hills Suite 757","has_children":true,"Referência":"Colega","Warned":false,"Pedidos":null,"Address_with_zip":"Ricky Hills Suite 75769777 - 506","Nacionalidade":"GN","Visitas":"4,0","Telemóvel":"968853306","Notas":"Menino 6","ID":267.0,"Nome":"Leonesa Uwanekwu","Família de":"2,0"},{"zipCode":"43824 - 610","address":"Bauch Roads Apt. 112","has_children":false,"Referência":"junta freguesia ","Warned":false,"Pedidos":null,"Address_with_zip":"Bauch Roads Apt. 11243824 - 610","Nacionalidade":"BR","Visitas":"1,0","Telemóvel":"938631691","Notas":"1 anos","ID":490.0,"Nome":"Lucas Oliveira ","Família de":"3,0"},{"zipCode":"58632 - 499","address":"Carter Route Apt. 555","has_children":false,"Referência":"Facebook doar e trocar ","Warned":false,"Pedidos":null,"Address_with_zip":"Carter Route Apt. 55558632 - 499","Nacionalidade":"BR","Visitas":"1,0","Telemóvel":"913786098","Notas":null,"ID":431.0,"Nome":"Tamara ","Família de":"3,0"},{"zipCode":"46313 - 828","address":"Jacobs Causeway Suite 338","has_children":false,"Referência":"Net","Warned":false,"Pedidos":"colchão de solteiro e casal","Address_with_zip":"Jacobs Causeway Suite 33846313 - 828","Nacionalidade":"BR","Visitas":"1,0","Telemóvel":"937907650","Notas":null,"ID":378.0,"Nome":"Raquel Rodrigues","Família de":"3,0"},{"zipCode":"18413 - 574","address":"Kulas Meadows Suite 395","has_children":false,"Referência":"Sandra","Warned":false,"Pedidos":null,"Address_with_zip":"Kulas Meadows Suite 39518413 - 574","Nacionalidade":"BR","Visitas":"1,0","Telemóvel":"913634727","Notas":null,"ID":359.0,"Nome":"Nathiele Oliveira ","Família de":"3,0"},{"zipCode":"23249 - 340","address":"Macey Pine Apt. 515","has_children":false,"Referência":"escola Sampaio ","Warned":false,"Pedidos":null,"Address_with_zip":"Macey Pine Apt. 51523249 - 340","Nacionalidade":"CO","Visitas":"1,0","Telemóvel":"910226262","Notas":null,"ID":242.0,"Nome":"juan sebastian ","Família de":"3,0"},{"zipCode":"99751 - 736","address":"Willow Road Apt. 658","has_children":false,"Referência":"amiga","Warned":false,"Pedidos":null,"Address_with_zip":"Willow Road Apt. 65899751 - 736","Nacionalidade":"BR","Visitas":"1,0","Telemóvel":"912344256","Notas":null,"ID":213.0,"Nome":"Jéssica Soares","Família de":"3,0"},{"zipCode":"16088 - 630","address":"McKenzie Hill Suite 528","has_children":false,"Referência":"Beneficiarios","Warned":false,"Pedidos":null,"Address_with_zip":"McKenzie Hill Suite 52816088 - 630","Nacionalidade":"BR","Visitas":"1,0","Telemóvel":"910515359","Notas":null,"ID":176.0,"Nome":"Inaria Oliveira ","Família de":"3,0"},{"zipCode":"17420 - 448","address":"W Washington Avenue Suite 895","has_children":false,"Referência":"amiga","Warned":false,"Pedidos":null,"Address_with_zip":"W Washington Avenue Suite 89517420 - 448","Nacionalidade":"BR","Visitas":"1,0","Telemóvel":"920491438","Notas":null,"ID":140.0,"Nome":"Ezabete almeida","Família de":"3,0"},{"zipCode":"87133 - 723","address":"Nikko Cliff Suite 707","has_children":false,"Referência":"amiga","Warned":false,"Pedidos":null,"Address_with_zip":"Nikko Cliff Suite 70787133 - 723","Nacionalidade":"BR","Visitas":"1,0","Telemóvel":"933822623","Notas":null,"ID":99.0,"Nome":"daniela veiga","Família de":"3,0"},{"zipCode":"35551 - 267","address":"Parker Glen Apt. 929","has_children":false,"Referência":"amigo","Warned":false,"Pedidos":null,"Address_with_zip":"Parker Glen Apt. 92935551 - 267","Nacionalidade":"BR","Visitas":"3,0","Telemóvel":"937331431","Notas":null,"ID":80.0,"Nome":"Celso Costa ","Família de":"3,0"},{"zipCode":"72341 - 305","address":"Swift Pines Suite 920","has_children":false,"Referência":null,"Warned":false,"Pedidos":"menino 7m","Address_with_zip":"Swift Pines Suite 92072341 - 305","Nacionalidade":"NP","Visitas":"3,0","Telemóvel":"920039998","Notas":null,"ID":57.0,"Nome":"Asmita Thapa","Família de":"3,0"},{"zipCode":"12328 - 914","address":"Marilyne Forges Apt. 634","has_children":false,"Referência":null,"Warned":false,"Pedidos":null,"Address_with_zip":"Marilyne Forges Apt. 63412328 - 914","Nacionalidade":"BR","Visitas":"1,0","Telemóvel":"933950510","Notas":null,"ID":33.0,"Nome":"Ana Sousa ","Família de":"3,0"},{"zipCode":"80824 - 310","address":"Chapel Close Suite 466","has_children":true,"Referência":"yudi","Warned":false,"Pedidos":null,"Address_with_zip":"Chapel Close Suite 46680824 - 310","Nacionalidade":"NP","Visitas":"8,0","Telemóvel":"920092766","Notas":"bebe 2 meses","ID":422.0,"Nome":"Somnarayan Manandhar","Família de":"3,0"},{"zipCode":"17125 - 500","address":"Armstrong Harbors Apt. 548","has_children":true,"Referência":"prof.","Warned":false,"Pedidos":null,"Address_with_zip":"Armstrong Harbors Apt. 54817125 - 500","Nacionalidade":"NP","Visitas":"1,0","Telemóvel":"920412783","Notas":"menina 9 meses","ID":346.0,"Nome":"Min Malla","Família de":"3,0"},{"zipCode":"87373 - 931","address":"N Broad Street Apt. 398","has_children":true,"Referência":"Wiliane","Warned":false,"Pedidos":null,"Address_with_zip":"N Broad Street Apt. 39887373 - 931","Nacionalidade":"HT","Visitas":"9,0","Telemóvel":"912753793","Notas":"menino 2 anos","ID":143.0,"Nome":"Fabrice François ","Família de":"3,0"},{"zipCode":"43669 - 217","address":"Upton Streets Apt. 822","has_children":false,"Referência":"amigos ","Warned":false,"Pedidos":null,"Address_with_zip":"Upton Streets Apt. 82243669 - 217","Nacionalidade":"CO","Visitas":"3,0","Telemóvel":"920378652","Notas":null,"ID":483.0,"Nome":"Carlos Giraldo ","Família de":"4,0"},{"zipCode":"28322 - 922","address":"Isaac Meadow Apt. 922","has_children":false,"Referência":"Amiga ","Warned":false,"Pedidos":null,"Address_with_zip":"Isaac Meadow Apt. 92228322 - 922","Nacionalidade":"BR","Visitas":"1,0","Telemóvel":"936256379","Notas":null,"ID":417.0,"Nome":"sHeila","Família de":"4,0"},{"zipCode":"62437 - 629","address":"Waelchi Creek Suite 483","has_children":false,"Referência":"amiga","Warned":false,"Pedidos":null,"Address_with_zip":"Waelchi Creek Suite 48362437 - 629","Nacionalidade":"AO","Visitas":"4,0","Telemóvel":"933151424","Notas":null,"ID":398.0,"Nome":"Ruthe Tavares ","Família de":"4,0"},{"zipCode":"19820 - 350","address":"Buddy Drives Apt. 985","has_children":false,"Referência":"amiga indiana","Warned":false,"Pedidos":null,"Address_with_zip":"Buddy Drives Apt. 98519820 - 350","Nacionalidade":"CN","Visitas":"1,0","Telemóvel":"910279915","Notas":null,"ID":339.0,"Nome":"Mei Lan Wong","Família de":"4,0"},{"zipCode":"93582 - 386","address":"Kohler Curve Suite 691","has_children":false,"Referência":"amigo ","Warned":false,"Pedidos":null,"Address_with_zip":"Kohler Curve Suite 69193582 - 386","Nacionalidade":"CO","Visitas":"1,0","Telemóvel":"910134637","Notas":null,"ID":166.0,"Nome":"hector Ramires ","Família de":"4,0"},{"zipCode":"68996 - 715","address":"Rippin Bridge Suite 956","has_children":false,"Referência":"Funci. Shopping","Warned":false,"Pedidos":"2 meninas 1 e 6 anos","Address_with_zip":"Rippin Bridge Suite 95668996 - 715","Nacionalidade":"PT","Visitas":"19,0","Telemóvel":"913762595,0","Notas":null,"ID":60.0,"Nome":"Aurora Cunha","Família de":"4,0"},{"zipCode":"13270 - 909","address":"Mann Junctions Suite 164","has_children":false,"Referência":"amigo","Warned":false,"Pedidos":null,"Address_with_zip":"Mann Junctions Suite 16413270 - 909","Nacionalidade":"BR","Visitas":"2,0","Telemóvel":"98872764","Notas":null,"ID":30.0,"Nome":"Ana Paula Maia","Família de":"4,0"},{"zipCode":"13429 - 456","address":"Tevin Field Suite 102","has_children":false,"Referência":"D.Amália ","Warned":false,"Pedidos":null,"Address_with_zip":"Tevin Field Suite 10213429 - 456","Nacionalidade":"ST","Visitas":"12,0","Telemóvel":"966141593","Notas":null,"ID":7.0,"Nome":"Adjamila do Espírito Santo","Família de":"4,0"},{"zipCode":"93686 - 738","address":"N Division Street Suite 406","has_children":true,"Referência":"amiga","Warned":false,"Pedidos":null,"Address_with_zip":"N Division Street Suite 40693686 - 738","Nacionalidade":"AO","Visitas":"2,0","Telemóvel":"934731248","Notas":"meninos 4 e 8","ID":388.0,"Nome":"Rosa Guimarães ","Família de":"4,0"},{"zipCode":"57003 - 898","address":"Leonor Ramp Suite 432","has_children":true,"Referência":"Amigo","Warned":false,"Pedidos":null,"Address_with_zip":"Leonor Ramp Suite 43257003 - 898","Nacionalidade":"BR","Visitas":"1,0","Telemóvel":"912913154","Notas":"boy 10, 5, 8","ID":190.0,"Nome":"Jackson Oliveira","Família de":"4,0"},{"zipCode":"68402 - 453","address":"East Avenue Suite 811","has_children":true,"Referência":"amigos","Warned":false,"Pedidos":null,"Address_with_zip":"East Avenue Suite 81168402 - 453","Nacionalidade":"GN","Visitas":"1,0","Telemóvel":"920187946","Notas":"menina 3","ID":67.0,"Nome":"Binta  Culubali","Família de":"4,0"},{"zipCode":"73204 - 275","address":"Goodwin Ferry Apt. 315","has_children":false,"Referência":"fatima - beneficiaria","Warned":false,"Pedidos":null,"Address_with_zip":"Goodwin Ferry Apt. 31573204 - 275","Nacionalidade":"GN","Visitas":"1,0","Telemóvel":"920335883","Notas":null,"ID":486.0,"Nome":"serifo baldé","Família de":"5,0"},{"zipCode":"48379 - 902","address":"Palma Haven Suite 186","has_children":false,"Referência":"Fahrad","Warned":false,"Pedidos":"1 cama de solteiro. Bairro da Alegria. ","Address_with_zip":"Palma Haven Suite 18648379 - 902","Nacionalidade":"CO","Visitas":"8,0","Telemóvel":"936531083","Notas":null,"ID":205.0,"Nome":"Jenny Bernal","Família de":"5,0"},{"zipCode":"80978 - 485","address":"Toy Trafficway Suite 919","has_children":false,"Referência":"Amiga","Warned":false,"Pedidos":null,"Address_with_zip":"Toy Trafficway Suite 91980978 - 485","Nacionalidade":"BR","Visitas":"2,0","Telemóvel":"961432106","Notas":null,"ID":179.0,"Nome":"Iracy Santos","Família de":"5,0"},{"zipCode":"25727 - 810","address":"Brad Extension Apt. 683","has_children":false,"Referência":" Colega de trabalho ","Warned":false,"Pedidos":null,"Address_with_zip":"Brad Extension Apt. 68325727 - 810","Nacionalidade":"BR","Visitas":"1,0","Telemóvel":"914053740","Notas":null,"ID":117.0,"Nome":"Edivania ","Família de":"5,0"},{"zipCode":"03089 - 221","address":"Welch Grove Apt. 407","has_children":true,"Referência":"amigos","Warned":false,"Pedidos":null,"Address_with_zip":"Welch Grove Apt. 40703089 - 221","Nacionalidade":"BR","Visitas":"2,0","Telemóvel":null,"Notas":"menina 5 e meninao 4","ID":468.0,"Nome":"Sara Rodrigues ","Família de":"5,0"},{"zipCode":"23938 - 579","address":"Woodlands Apt. 333","has_children":true,"Referência":"associação ADOLESCER","Warned":false,"Pedidos":null,"Address_with_zip":"Woodlands Apt. 33323938 - 579","Nacionalidade":"AO","Visitas":"6,0","Telemóvel":"920465010","Notas":"3 crianças: 10 anos, 7 anos e 4 anos","ID":216.0,"Nome":"Joana Kukekuka","Família de":"5,0"},{"zipCode":"84517 - 214","address":"N Front Street Apt. 773","has_children":false,"Referência":null,"Warned":false,"Pedidos":null,"Address_with_zip":"N Front Street Apt. 77384517 - 214","Nacionalidade":"CO","Visitas":"1,0","Telemóvel":null,"Notas":null,"ID":157.0,"Nome":"Gladys Bonilla","Família de":"6,0"},{"zipCode":"22706 - 104","address":"Beatty Lodge Suite 846","has_children":false,"Referência":"Rapariga Brasileira","Warned":false,"Pedidos":null,"Address_with_zip":"Beatty Lodge Suite 84622706 - 104","Nacionalidade":"CO","Visitas":"6,0","Telemóvel":"920121067","Notas":null,"ID":64.0,"Nome":"Bernarda Galpes","Família de":"6,0"},{"zipCode":"06953 - 689","address":"Tomas Causeway Apt. 646","has_children":true,"Referência":"Filha","Warned":false,"Pedidos":null,"Address_with_zip":"Tomas Causeway Apt. 64606953 - 689","Nacionalidade":"PT","Visitas":"2,0","Telemóvel":"812244887","Notas":"Criança 5","ID":331.0,"Nome":"Marilia Vasconcelos","Família de":"6,0"}]}